{"type":"FeatureCollection","features":[{"type":"Feature","id":948694,"geometry":{"type":"Polygon","coordinates":[[[88.967096332999972,22.192634499999997],[88.960753000000011,22.190731500000027],[88.950286500000004,22.190731500000027],[88.943625999999995,22.193585999999982],[88.946480500000007,22.185973999999987],[88.943625999999995,22.184071000000017],[88.939819999999997,22.18216799999999],[88.935062500000015,22.178361999999993],[88.926498999999978,22.178361999999993],[88.923644500000023,22.170749999999998],[88.920790000000011,22.165040999999974],[88.907468999999992,22.169798500000013],[88.907468999999992,22.170749999999998],[88.902711500000009,22.171701499999983],[88.896051,22.168847000000028],[88.896051,22.163138000000004],[88.907468999999992,22.153622999999982],[88.910323500000004,22.141253500000005],[88.910323500000004,22.13554449999998],[88.914129500000001,22.129835500000013],[88.928402000000006,22.119369000000006],[88.931256500000018,22.108902499999999],[88.92745050000002,22.097484500000007],[88.920790000000011,22.085114999999973],[88.910323500000004,22.085114999999973],[88.907468999999992,22.088921000000028],[88.894147999999973,22.091775499999983],[88.881778499999996,22.088921000000028],[88.871311999999989,22.090823999999998],[88.862748500000009,22.098435999999992],[88.857039499999985,22.104145000000017],[88.853233499999988,22.114611500000024],[88.851330500000017,22.120320499999991],[88.846572999999978,22.124126499999988],[88.84086400000001,22.126981000000001],[88.831348999999989,22.126981000000001],[88.819930999999997,22.126029500000016],[88.812319000000002,22.128884000000028],[88.804707000000008,22.126029500000016],[88.804707000000008,22.116514499999994],[88.799949500000025,22.113659999999982],[88.788531499999976,22.108902499999999],[88.783773999999994,22.105096500000002],[88.781871000000024,22.097484500000007],[88.780919499999982,22.090823999999998],[88.776161999999999,22.087018],[88.764744000000007,22.084163499999988],[88.758083499999998,22.078454500000021],[88.754277500000001,22.068939499999999],[88.748568499999976,22.064182000000017],[88.749520000000018,22.048006499999985],[88.756180500000028,22.035637000000008],[88.76093800000001,22.021364500000004],[88.758083499999998,22.006140500000015],[88.753326000000015,21.995674000000008],[88.748568499999976,21.984256000000016],[88.735247500000014,21.980450000000019],[88.725732499999992,21.978546999999992],[88.72287799999998,21.946195999999986],[88.72287799999998,21.938583999999992],[88.72097500000001,21.932875000000024],[88.716217500000027,21.924311499999988],[88.716217500000027,21.910990500000025],[88.72097500000001,21.910038999999983],[88.726683999999977,21.903378499999974],[88.732393000000002,21.901475500000004],[88.740004999999996,21.899572499999977],[88.746665500000006,21.895766499999979],[88.749520000000018,21.890057500000012],[88.756180500000028,21.887203],[88.758083499999998,21.88054249999999],[88.771404500000017,21.877687999999978],[88.773307499999987,21.869124499999998],[88.779967999999997,21.861512500000003],[88.779967999999997,21.855803499999979],[88.772356000000002,21.853900500000009],[88.771404500000017,21.84057949999999],[88.779016500000012,21.842482500000017],[88.789483000000018,21.842482500000017],[88.801852499999995,21.841530999999975],[88.818028000000027,21.847239999999999],[88.830397500000004,21.842482500000017],[88.832300499999974,21.835822000000007],[88.832300499999974,21.823452499999973],[88.836106500000028,21.804422499999987],[88.832300499999974,21.79205300000001],[88.830397500000004,21.783489499999973],[88.830397500000004,21.776829000000021],[88.839912500000025,21.773974500000008],[88.852282000000002,21.774925999999994],[88.860845499999982,21.771119999999996],[88.870360500000004,21.765410999999972],[88.874166500000001,21.756847499999992],[88.878923999999984,21.7454295],[88.918886999999984,21.725447999999972],[88.925547499999993,21.731156999999996],[88.92745050000002,21.746380999999985],[88.924596000000008,21.758750500000019],[88.930304999999976,21.764459499999987],[88.940771499999983,21.760653499999989],[88.947431999999992,21.758750500000019],[88.958849999999984,21.755896000000007],[88.963607500000023,21.753041499999995],[88.967413500000021,21.7454295],[88.970267999999976,21.735914499999978],[88.978831500000013,21.744478000000015],[88.985492000000022,21.747332500000027],[88.989298000000019,21.740672000000018],[88.978831500000013,21.73686600000002],[88.978831500000013,21.731156999999996],[88.99120099999999,21.724496499999987],[89.002618999999981,21.718787500000019],[89.010230999999976,21.715933000000007],[89.017843000000028,21.718787500000019],[89.028309499999978,21.718787500000019],[89.042581999999982,21.722593500000016],[89.059708999999998,21.726399500000014],[89.057806000000028,21.732108499999981],[89.050193999999976,21.738768999999991],[89.041630499999997,21.7454295],[89.032115499999975,21.755896000000007],[89.028309499999978,21.769217000000026],[89.02450349999998,21.774925999999994],[89.02450349999998,21.787295500000027],[89.023551999999995,21.799665000000005],[89.025455000000022,21.809180000000026],[89.02926100000002,21.826306999999986],[89.033067000000017,21.839628000000005],[89.034018500000002,21.852949000000024],[89.034018500000002,21.860561000000018],[89.030212500000005,21.869124499999998],[89.02450349999998,21.874833500000022],[89.016891499999986,21.883397000000002],[89.014988500000015,21.891008999999997],[89.017843000000028,21.901475500000004],[89.020697499999983,21.910990500000025],[89.023551999999995,21.916699499999993],[89.027357999999992,21.923360000000002],[89.033067000000017,21.925262999999973],[89.018794500000013,21.933826500000009],[89.011182500000018,21.940487000000019],[89.001667499999996,21.947147500000028],[89.000716000000011,21.955711000000008],[89.005473499999994,21.964274499999988],[89.010230999999976,21.969032000000027],[89.014988500000015,21.972838000000024],[89.016891499999986,21.980450000000019],[89.012134000000003,21.985207500000001],[89.005473499999994,21.982352999999989],[89.000716000000011,21.977595500000007],[88.995006999999987,21.973789500000009],[88.993104000000017,21.980450000000019],[88.989298000000019,21.985207500000001],[88.981686000000025,21.988062000000014],[88.977880000000027,21.989964999999984],[88.978831500000013,21.993770999999981],[88.980734499999983,21.99852850000002],[88.977880000000027,22.007092],[88.973122499999988,22.010897999999997],[88.971219500000018,22.012801000000024],[88.979782999999998,22.029927999999984],[88.981686000000025,22.037539999999979],[88.981686000000025,22.040394499999991],[88.975025500000015,22.044200499999988],[88.970267999999976,22.046103500000015],[88.964559000000008,22.049909500000012],[88.966461999999979,22.054666999999995],[88.968365000000006,22.06227899999999],[88.970267999999976,22.067036499999972],[88.972171000000003,22.079406000000006],[88.978831500000013,22.091775499999983],[88.981686000000025,22.099387499999978],[88.987394999999992,22.109853999999984],[88.99120099999999,22.121271999999976],[88.993104000000017,22.132690000000025],[88.994055500000002,22.143156499999975],[88.994055500000002,22.146010999999987],[88.988672728999973,22.153188028999978],[88.98263750000001,22.154574500000024],[88.979782999999998,22.159332000000006],[88.973122499999988,22.165992500000016],[88.970267999999976,22.176459000000023],[88.967413500000021,22.187877000000015],[88.967096332999972,22.192634499999997]]]},"properties":{"objectid":948694,"site_id":14177,"site_pid":"14177","site_type":"PA","name_eng":"Sundarbans National Park","name":"Parc national des Sundarbans","desig":"World Heritage Site (natural or mixed)","desig_eng":"World Heritage Site (natural or mixed)","desig_type":"International","iucn_cat":"Not Applicable","int_crit":"(ix);(x)","realm":"Coastal","rep_m_area":0,"gis_m_area":241.59568321999998,"rep_area":1330.0999999999999,"gis_area":1038.34317659,"no_take":"Not Reported","no_tk_area":0,"status":"Inscribed","status_yr":1987,"gov_type":"Not Reported","verif":"State Verified","inlnd_wtrs":"Not Reported","own_type":"Not Reported","mang_auth":"Not Reported","mang_plan":"Not Reported","cons_obj":"Not Applicable","supp_info":"Not Applicable","metadataid":946,"prnt_iso3":"IND","iso3":"IND","govsubtype":"Not Applicable","ownsubtype":"Not Applicable","oecm_asmt":"Not Applicable","Shape__Area":0.090772246222856054,"Shape__Length":1.7786889087936337}},{"type":"Feature","id":957620,"geometry":{"type":"Polygon","coordinates":[[[85.189300000000003,19.470070000000021],[85.234089999999981,19.502850000000024],[85.294939999999997,19.544359999999983],[85.343889999999988,19.57510000000002],[85.372889999999984,19.594400000000007],[85.429829999999981,19.623350000000016],[85.495400000000018,19.650489999999991],[85.557860000000005,19.682900000000018],[85.591630000000009,19.713399999999979],[85.531589999999994,19.723819999999989],[85.595230000000015,19.756579999999985],[85.611310000000003,19.789379999999994],[85.590910000000008,19.817990000000009],[85.599550000000022,19.870020000000011],[85.600930000000005,19.926490000000001],[85.562520000000006,19.928020000000004],[85.530939999999987,19.944610000000011],[85.491579999999999,19.920149999999978],[85.451300000000003,19.912719999999979],[85.428459999999973,19.885310000000004],[85.399810000000002,19.855669999999975],[85.36739,19.839159999999993],[85.338979999999992,19.806519999999978],[85.30225999999999,19.795999999999992],[85.267929999999978,19.780169999999998],[85.23205999999999,19.752169999999978],[85.207310000000007,19.71787999999998],[85.209949999999992,19.679030000000012],[85.178540000999988,19.660630000000026],[85.18313999999998,19.626590000000022],[85.150570000000016,19.611649999999997],[85.151659999999993,19.576739999999972],[85.131239999999991,19.54858999999999],[85.119379999999978,19.477649999999983],[85.142280000000028,19.451819999999998],[85.189300000000003,19.470070000000021]]]},"properties":{"objectid":957620,"site_id":68005,"site_pid":"68005","site_type":"PA","name_eng":"Chilika Lake","name":"Chilika Lake","desig":"Wetland of International Importance (Ramsar Site)","desig_eng":"Wetland of International Importance (Ramsar Site)","desig_type":"International","iucn_cat":"Not Reported","int_crit":"Not Reported","realm":"Coastal","rep_m_area":0,"gis_m_area":738.55893704999994,"rep_area":1165,"gis_area":1277.75746488,"no_take":"Not Reported","no_tk_area":0,"status":"Designated","status_yr":1981,"gov_type":"Not Reported","verif":"State Verified","inlnd_wtrs":"Not Reported","own_type":"Not Reported","mang_auth":"Not Reported","mang_plan":"Management plan is implented and available","cons_obj":"Not Applicable","supp_info":"Not Applicable","metadataid":1856,"prnt_iso3":"IND","iso3":"IND","govsubtype":"Not Applicable","ownsubtype":"Not Applicable","oecm_asmt":"Not Applicable","Shape__Area":0.11009891222378,"Shape__Length":1.6398009121069466}},{"type":"Feature","id":1252472,"geometry":{"type":"Polygon","coordinates":[[[88.188530196999977,21.423477131000027],[88.226732581000022,21.477924642999994],[88.282253337999975,21.516789173000006],[88.383777007999981,21.549308473999986],[88.481334908999997,21.492201410000007],[88.597135345000027,21.512823405000006],[88.691520631000003,21.534238554000012],[88.778767534999986,21.508064482999998],[88.85253082600002,21.493787716999975],[88.886636434000025,21.507271328999991],[88.971503875999986,21.546135859000003],[89.010368405999998,21.566757854000002],[89.04130139900002,21.575482545],[89.075407007000024,21.599277154999982],[89.099223128999995,21.620522712000025],[89.101930419999974,21.633517711000025],[89.094978332999972,21.651308060000019],[89.074859618999994,21.6875],[89.054840087999992,21.724040984999988],[89.038017106999973,21.737253108999994],[89.023423078999997,21.750578089999976],[89.017684937000013,21.762241363999976],[89.013270712999997,21.781225548000009],[89.00717522399998,21.802452688000017],[89.020884987999978,21.826911198999994],[89.02754747900002,21.847850456000003],[89.02754747900002,21.864982575999989],[89.005002707000017,21.888029831999972],[89.00608562299999,21.915644203999989],[89.017883300999983,21.927505493000012],[89.041946411000026,21.945829391000018],[89.054275408000024,21.976828986999976],[89.053192491999994,22.013648149000005],[89.046112060999974,22.038055419999978],[89.028656006000006,22.067182541000022],[89.02016353800002,22.097032721000005],[89.030055177999998,22.11606397700001],[89.040105997000012,22.127333077000003],[89.036827087000006,22.140001297000026],[89.017567797000027,22.149262136000004],[89.009648970000001,22.162054087999991],[89.004471275000014,22.170886626000026],[89.000816432000022,22.190074552999988],[88.998588562000009,22.210863113000016],[88.986501628999974,22.21200361199999],[88.973487853999984,22.209184646999972],[88.961222297000006,22.207739629000002],[88.955001831000004,22.216562270999987],[88.941123962000006,22.225210189999984],[88.943557220999992,22.214135603999978],[88.945384642000022,22.205912206999983],[88.942643509999982,22.199516231000018],[88.933810972000003,22.199211660999993],[88.925283003999994,22.19647052900001],[88.926196715000003,22.190074552999988],[88.92284644199998,22.185505998999986],[88.918151855000019,22.18490028399998],[88.912010193000015,22.185941695999986],[88.909941687000014,22.180666716000019],[88.906028747999983,22.173692702999972],[88.898422240999992,22.170555115000013],[88.894111633000023,22.177242278999984],[88.880702940999981,22.181884996999997],[88.874916106000001,22.176402731999985],[88.878639221000014,22.167825698999991],[88.883444073000021,22.151427968999997],[88.894713173000014,22.134981175000007],[88.906286844000022,22.118229810000003],[88.907809695000026,22.101478444999998],[88.903850282000008,22.09934645300001],[88.889840048999986,22.095387039000002],[88.874306965000017,22.095387039000002],[88.859687592,22.089600204000021],[88.851464195000005,22.096300750000012],[88.838976813999977,22.103915007000012],[88.833494549000022,22.116402387999983],[88.823623656999985,22.130052567000007],[88.805831909000005,22.130830764999985],[88.787504437999985,22.127671487999976],[88.775626197000008,22.116706958000009],[88.768316509999977,22.111529264000012],[88.754306278000001,22.099041882999984],[88.743341747999978,22.08990477399999],[88.735118350999983,22.081985947000021],[88.730549796999981,22.074067119999995],[88.722326398999996,22.062798020000002],[88.712486266999974,22.059341431000007],[88.70471954300001,22.065000533999978],[88.689432810000028,22.067062003999979],[88.678163709999978,22.067366574000005],[88.66750374999998,22.063711731000012],[88.659996033000027,22.057220459000007],[88.642796513999997,22.057118697000021],[88.628738403,22.051660538000021],[88.616908040999988,22.040976472000011],[88.608380072999978,22.029098232000024],[88.601679526999988,22.016001710000012],[88.591933278999988,22.005037179999988],[88.586451013999977,21.991331517999981],[88.576095624000004,21.991636088000007],[88.56604480499999,21.984326402000022],[88.565131095000027,21.967879606999986],[88.560257970000009,21.958133357999998],[88.554471134999972,21.967575037000017],[88.547256469999979,21.973779678000028],[88.537506103999988,21.978691100999981],[88.530410083999982,21.970925309999984],[88.531932934999986,21.959351638999976],[88.53619691900002,21.947473398999989],[88.535587777999979,21.92432605800002],[88.542288324000026,21.917930081999998],[88.557516838000026,21.909706685000003],[88.55394744900002,21.902708054000016],[88.545578003000003,21.904626845999985],[88.532237505000012,21.908792973999994],[88.528278091999994,21.902701568999987],[88.534369497,21.893564460999983],[88.53345578599999,21.881077079000022],[88.524927819000027,21.871939971000018],[88.526146100000005,21.860366300999999],[88.519187927000019,21.858900070000004],[88.508865356000001,21.867010117000007],[88.496948241999974,21.875679015999992],[88.494979858000022,21.883710860999997],[88.503890990999992,21.904167174999998],[88.509162903000004,21.910829544000023],[88.521881103999988,21.920721054000012],[88.522819518999995,21.933099747000028],[88.517143250000004,21.944139480999979],[88.509933472,21.950815201000012],[88.497230530000024,21.956439971999998],[88.487161104999984,21.963920192999979],[88.494194031000006,21.971569061000025],[88.504013062000013,21.981491088999974],[88.499039345000028,21.986153822999995],[88.486551964,21.978539565999995],[88.481983409999998,21.97214359100002],[88.478937707999989,21.959656209999991],[88.485333683000022,21.950519100999998],[88.493861650999975,21.945645977000027],[88.493861650999975,21.927371761000018],[88.487161104999984,21.918234653000013],[88.473150872000019,21.910924965999982],[88.466145756000003,21.904528990000017],[88.465637206999986,21.896394729999997],[88.477414855999996,21.893259890000024],[88.476877157999979,21.881039477999991],[88.481445711999982,21.872816080999996],[88.490303040000015,21.85396194499998],[88.494542233999994,21.841140772000017],[88.502765630999988,21.832612804999997],[88.516166723000026,21.828653390999989],[88.522258129000022,21.824084836999987],[88.519212426000024,21.814643159000013],[88.51007531800002,21.803983199000015],[88.509466176999979,21.809160894000001],[88.498886108000022,21.819721221999998],[88.49111175500002,21.830278396999972],[88.481819153000004,21.835128784000005],[88.480836571999987,21.828653390999989],[88.484795985000005,21.823780267000018],[88.485100554999974,21.810683745000006],[88.475354306999975,21.803069488000006],[88.459167480000019,21.791015625],[88.45190239599998,21.781444998999973],[88.448247551999998,21.769566757999996],[88.443678997999996,21.747637698999995],[88.442156146999992,21.736064027999987],[88.439903259000005,21.709304809999992],[88.424552917000028,21.709356307999997],[88.415133996000009,21.701393779],[88.404626321000023,21.693627236999987],[88.398230345000002,21.685175411999978],[88.39777349000002,21.669642328000009],[88.398687200999973,21.654337671999997],[88.405083176999995,21.644972135999978],[88.414220284999999,21.635378172999992],[88.416276133999986,21.624642070999982],[88.403712610000014,21.622586221000006],[88.39685977900001,21.618017667000004],[88.391377513999998,21.611850118999996],[88.385895248999987,21.606367853999984],[88.379727700999979,21.604312004999997],[88.374702291999995,21.607281564999994],[88.374702291999995,21.616190244999984],[88.376758140999982,21.625098926000021],[88.374930720000009,21.631494901999986],[88.375387574999991,21.642231003999996],[88.369905309999979,21.646342702000027],[88.358070374000022,21.647500992000005],[88.358712352999987,21.656165094000016],[88.354143798999985,21.667358051000008],[88.344549835000009,21.677637297999979],[88.336326438000015,21.684718556999997],[88.329473607000011,21.688830255000028],[88.322440288999985,21.690097417999993],[88.308052062999991,21.693624495999984],[88.295555115000013,21.695554732999994],[88.289443969999979,21.701667785999973],[88.296310425000001,21.706079482999996],[88.308296203999987,21.706970215000013],[88.315130603,21.701468041999988],[88.332496643000013,21.702222823999989],[88.330276489000028,21.703889847000028],[88.328330993999998,21.710279464999985],[88.330156069999987,21.720148352000024],[88.323658570000021,21.725833663000003],[88.316754978000006,21.727051943999982],[88.307235718000015,21.723690033000025],[88.297668573999999,21.727458038000009],[88.295232011999985,21.757102878000012],[88.292877196999996,21.774829865000015],[88.279800451000028,21.781874593999987],[88.263908386000026,21.78745078999998],[88.254432678000001,21.791200638000021],[88.251945496000019,21.798334122000028],[88.250561704999996,21.809895058999984],[88.261390686000027,21.81175994900002],[88.271102905000021,21.818740844999979],[88.29029846200001,21.823801041000024],[88.300105136000013,21.834666774000027],[88.292795448999982,21.836291148999976],[88.282643107000013,21.835478960999978],[88.270866389999981,21.830605837000007],[88.259901860000014,21.824920524999982],[88.252592173999972,21.818829119999975],[88.244876393000027,21.811519433000001],[88.242033736999986,21.799336621999998],[88.24325201900001,21.789184279999972],[88.247729633000006,21.774342085000001],[88.264846802000022,21.756942749000018],[88.282501221000018,21.76721954300001],[88.284156799000016,21.750579834000007],[88.279167174999998,21.716939926000009],[88.283826851000015,21.694206262000023],[88.291046294000012,21.681211264000012],[88.296821849000025,21.66605043200002],[88.278051296000001,21.624899604000007],[88.273719630000016,21.602519330000007],[88.285270738999998,21.590246276000016],[88.291046294000012,21.575807388999976],[88.273612975999981,21.559444427000017],[88.256668090999995,21.560831070000006],[88.24416351299999,21.580833434999988],[88.254227131999983,21.600353497000015],[88.242225646999998,21.597221375000004],[88.226793246999989,21.585914609999975],[88.230402969000011,21.593855996999991],[88.230552672999977,21.609720229999994],[88.219451903999982,21.614719390999994],[88.216308593999997,21.627239227000018],[88.231109618999994,21.645280838000019],[88.220295748000012,21.650889601000017],[88.210188527000014,21.633562937000022],[88.200836181999989,21.620000838999999],[88.207778931000007,21.604164124000022],[88.200081306000016,21.597465719000013],[88.189974085000017,21.609738773000004],[88.180588809000028,21.632119047999993],[88.176257142999987,21.657387099999994],[88.169037699,21.671104043000014],[88.153892516999974,21.655832291000024],[88.142501831000004,21.637220382999999],[88.144491591000019,21.620567938000022],[88.138716036000005,21.601075440999978],[88.137272148000022,21.572919610999975],[88.139437981000015,21.551983225000015],[88.158208533999982,21.523827395000012],[88.170481587999973,21.497837398999991],[88.172647421000022,21.474735179999982],[88.174813254000014,21.456686570999977],[88.188530196999977,21.423477131000027]]]},"properties":{"objectid":1252472,"site_id":555795276,"site_pid":"555795276","site_type":"PA","name_eng":"Sundarban Wetland","name":"Sundarban Reserve Forest","desig":"Wetland of International Importance (Ramsar Site)","desig_eng":"Wetland of International Importance (Ramsar Site)","desig_type":"International","iucn_cat":"Ia","int_crit":"(ii);(iii);(vii);(viii)","realm":"Coastal","rep_m_area":0,"gis_m_area":2055.2206351200002,"rep_area":4230,"gis_area":4243.77409377,"no_take":"Not Reported","no_tk_area":0,"status":"Designated","status_yr":2019,"gov_type":"Not Reported","verif":"State Verified","inlnd_wtrs":"Not Reported","own_type":"State","mang_auth":"Full information available from the Ramsar Sites Information Service (RSIS) website - https://rsis.ramsar.org/ris/2370","mang_plan":"Site management information available at: https://rsis.ramsar.org/ris/2370","cons_obj":"Not Applicable","supp_info":"More information available at: https://rsis.ramsar.org/ris/2370","metadataid":2123,"prnt_iso3":"IND","iso3":"IND","govsubtype":"Not Applicable","ownsubtype":"Not Applicable","oecm_asmt":"Not Applicable","Shape__Area":0.37058009670530712,"Shape__Length":4.7970339879623038}},{"type":"Feature","id":1252547,"geometry":{"type":"MultiPolygon","coordinates":[[[[78.995833333000007,9.2222222220000276],[78.879166666999993,9.2222222220000276],[78.875,9.2236111110000252],[78.858333333000019,9.2055555549999895],[78.672222222000016,9.1541666659999805],[78.694444444999988,9.125],[78.75,9.1230555559999971],[78.858333333000019,9.1555555560000244],[78.875,9.166666666000026],[78.995833333000007,9.1666666670000154],[78.995833333000007,9.2222222220000276]]],[[[79.186111111000002,9.166666666000026],[79.168055555000024,9.2180555549999781],[79.140277777999984,9.2216666670000222],[79.102777776999972,9.2341666670000109],[79.085277776999988,9.2347222220000162],[79.034722222000028,9.2180555560000244],[79.034722223000017,9.1666666670000154],[79.186111111000002,9.166666666000026]]],[[[79.179166666000015,9.1944444439999984],[79.25,9.2236111110000252],[79.25,9.2513888889999976],[79.236111111000014,9.2527777779999951],[79.223611111000025,9.25],[79.219444443999976,9.25],[79.202777777999984,9.2527777770000057],[79.193055555000001,9.2519444440000029],[79.179166666000015,9.25],[79.168055556000013,9.2430555560000016],[79.168055556000013,9.2416666660000146],[79.179166666000015,9.1944444439999984]]],[[[78.622222222000005,9.1041666670000154],[78.577777777999984,9.1208333330000073],[78.455555555999979,9.0930555549999781],[78.475000000000023,9.041666666000026],[78.622222222000005,9.1041666670000154]]],[[[78.241666669999972,8.8166666669999927],[78.308333329999982,8.9250000000000114],[78.262499999999989,8.9750000000000227],[78.233333329999994,8.9499999999999886],[78.191666670000018,8.8166666669999927],[78.241666669999972,8.8166666669999927]]]]},"properties":{"objectid":1252547,"site_id":555795353,"site_pid":"555795353","site_type":"PA","name_eng":"Gulf of Mannar Marine Biosphere Reserve","name":"Mannar Valaiguda in Tamil","desig":"Wetland of International Importance (Ramsar Site)","desig_eng":"Wetland of International Importance (Ramsar Site)","desig_type":"International","iucn_cat":"Not Reported","int_crit":"(i);(ii);(iii);(iv);(ix);(v);(vi);(vii);(viii)","realm":"Marine","rep_m_area":0,"gis_m_area":519.87486211000009,"rep_area":526.71875999999997,"gis_area":526.71875749000003,"no_take":"Not Reported","no_tk_area":0,"status":"Designated","status_yr":2022,"gov_type":"Not Reported","verif":"State Verified","inlnd_wtrs":"Not Applicable","own_type":"Joint ownership","mang_auth":"Full information available from the Ramsar Sites Information Service (RSIS) website - https://rsis.ramsar.org/ris/2472","mang_plan":"Site management information available at: https://rsis.ramsar.org/ris/2472","cons_obj":"Not Applicable","supp_info":"More information available at: https://rsis.ramsar.org/ris/2472","metadataid":2123,"prnt_iso3":"IND","iso3":"IND","govsubtype":"Not Applicable","ownsubtype":"Not Reported","oecm_asmt":"Not Applicable","Shape__Area":0.043323263606250002,"Shape__Length":2.1858344786633683}},{"type":"Feature","id":1252557,"geometry":{"type":"Polygon","coordinates":[[[79.797033833,11.452381807999984],[79.796915684999988,11.452549482999984],[79.795365690999972,11.456976175000023],[79.795230275999984,11.457384439999998],[79.79239719100002,11.459798364999983],[79.791483104999998,11.460527339000009],[79.790524023999978,11.461437585999988],[79.787737079999999,11.463896421000015],[79.785910569999999,11.465671224000005],[79.784722853000005,11.466763696999976],[79.783804331999988,11.46667813900001],[79.782701327999973,11.46645769700001],[79.781414863000009,11.466237928999988],[79.780220546999999,11.466108331999976],[79.777693800000009,11.465759468999977],[79.776361126999973,11.465495013000009],[79.775257791000001,11.465183880999973],[79.774647576999996,11.46521829400001],[79.773875491000013,11.466479995999975],[79.773762503,11.465538427000013],[79.773668344999976,11.464116658000023],[79.773802563999993,11.462956231000021],[79.77372484,11.46044453899998],[79.773715423999988,11.459248746000014],[79.773706007999976,11.458702635999998],[79.773749749999979,11.457904387999974],[79.773715423999988,11.457497428000011],[79.774468678999995,11.456376960999989],[79.775113555000019,11.455407910000019],[79.775295455999981,11.455090070999972],[79.775805707000018,11.454220768000027],[79.776351816999977,11.453279199000008],[79.776926175000028,11.452186978999976],[79.777594689000011,11.45099118600001],[79.778159630000005,11.449917797000012],[79.778710448000027,11.449032722000027],[79.778726898000002,11.449002415999985],[79.778799896999999,11.448797329999991],[79.778927008999972,11.448585476999995],[79.779309963999992,11.447545939000008],[79.779588579000006,11.447025089000022],[79.77985916199998,11.446283341000026],[79.780108677999976,11.445798432999993],[79.780194064999989,11.445571013000006],[79.780199055000026,11.445540202000018],[79.780207543000017,11.445520670000008],[79.780334654000001,11.445228783000005],[79.780471181999985,11.44502634600002],[79.780570047000026,11.444805077000012],[79.780635957000015,11.444616763999989],[79.780723401999978,11.444468221000022],[79.780824702000018,11.44410419899998],[79.78084181700001,11.444064568999977],[79.78087025100001,11.443999179000002],[79.781412079999996,11.442891749000012],[79.781789378999974,11.441970954999988],[79.781958861000021,11.441650820999996],[79.78202477100001,11.441396596999994],[79.782147174999977,11.441184743999997],[79.782227207999995,11.440963475999979],[79.782377859000007,11.440591556000015],[79.782552049000003,11.440163142000017],[79.782730947999994,11.439781806999974],[79.782869256000026,11.439459625999973],[79.783319428000027,11.438303543000018],[79.783670346999997,11.437539973000014],[79.784326906999979,11.436123811000016],[79.784997884999996,11.434801047999997],[79.784915388000002,11.434410155000023],[79.784797691999984,11.433816966999984],[79.784624086999997,11.432508238000025],[79.784661163999999,11.432042109000008],[79.784642333000022,11.431227652000018],[79.784599962000016,11.430149555000014],[79.784599962000016,11.429862377000006],[79.784594792000007,11.429723879999983],[79.784576914000013,11.429754477000017],[79.783060497000008,11.429796467000017],[79.782420230000014,11.428854897999997],[79.782137759000022,11.428949054999975],[79.782156590999989,11.429834130000017],[79.779746174000024,11.429608153000004],[79.77833382,11.429193863000023],[79.777034454999978,11.428704246999985],[79.775697427000011,11.428101642999991],[79.774699364000014,11.427593194999986],[79.773652790000028,11.427224919000025],[79.772364272999994,11.426425649999999],[79.771140232999983,11.425615901000015],[79.770179831999997,11.424824983000008],[79.768913919999989,11.424133114000028],[79.768058169000028,11.423437388000025],[79.767095181000002,11.422636864000026],[79.766698727999994,11.421518492000018],[79.766959665999991,11.420757404000028],[79.767830005999997,11.420602353999982],[79.767944471000021,11.420450092999999],[79.768043454000008,11.420671292999998],[79.768617473000006,11.421788742999979],[79.769049633000009,11.422941948000016],[79.769977859999983,11.423882449000018],[79.771083142999998,11.42475226800002],[79.77204502799998,11.425342367999974],[79.773079671999994,11.426282587999992],[79.773722132999978,11.426909362000004],[79.77436179099999,11.427011102999984],[79.774750797000024,11.426728905999994],[79.775886893000006,11.426687974999993],[79.777222768999991,11.426576301000011],[79.778220831999988,11.426124347999973],[79.778861098999982,11.425615901000015],[79.779030580999972,11.424956801999997],[79.778277326000023,11.42437302899998],[79.778817644000014,11.423661685000013],[79.779237980000005,11.422573818999979],[79.780896697000003,11.420709579000004],[79.78252345300001,11.419510629000001],[79.783354219999978,11.418990284000017],[79.783832582999992,11.418497639000009],[79.784604670000022,11.418083347999982],[79.784717657999977,11.417970360000027],[79.785452082000006,11.417650227000024],[79.785654518999991,11.417537238000023],[79.785866371999987,11.417443080999988],[79.786845050000011,11.416781903000015],[79.78704918599999,11.416504049000025],[79.787290697000003,11.416226282000025],[79.787476615999992,11.416022521999992],[79.787681093999993,11.415781664999997],[79.787848552000014,11.41563335799998],[79.787997350000012,11.415503505999993],[79.788165004999996,11.415391913999997],[79.788352115000009,11.415409291999993],[79.788483589000009,11.415519317000019],[79.788492965999978,11.415744648999976],[79.788355095999975,11.415962562000004],[79.787824836000027,11.416652162999981],[79.787612957000022,11.417036024000026],[79.786742032000006,11.417895034000026],[79.786384235000014,11.418554132999986],[79.786139427000023,11.41898725499999],[79.785932281999976,11.419335634999982],[79.785706306000009,11.419806419999986],[79.785536822999973,11.420154799999978],[79.785405003999983,11.420795066999972],[79.785301430999993,11.421021043999986],[79.784350446000019,11.421435334000023],[79.783851415000015,11.42176488299998],[79.783493619000012,11.421906119000028],[79.783201732000009,11.422113264000018],[79.782787441999972,11.423798671999975],[79.782589712000004,11.424749657000007],[79.782588679000014,11.42504259399999],[79.782476723999991,11.425775966999993],[79.783145237999975,11.425728889000027],[79.784084672999995,11.425649485999998],[79.784115053999983,11.425653563000026],[79.784165927999993,11.42566063999999],[79.78428603399999,11.425546473999987],[79.784463435000021,11.425413462999984],[79.785211982000021,11.424824983000008],[79.78567805900002,11.42439656900001],[79.785842833000004,11.424081143000024],[79.786431314000026,11.423130157999992],[79.786977423999986,11.422287454000013],[79.787815420000015,11.420893932000013],[79.788384889999975,11.420123538999974],[79.789015920999987,11.419175568000014],[79.789707974000009,11.418201044],[79.790329410000027,11.417405418999977],[79.790842564999991,11.416656870999986],[79.791214485000012,11.415955402000009],[79.791619358999981,11.416162546999999],[79.792028942000002,11.41644501799999],[79.792341094999983,11.416259517000015],[79.792942263999976,11.415611730000023],[79.792490310999995,11.415169192000008],[79.792678624000018,11.415023249000001],[79.792857799999979,11.41491694299998],[79.792865437999978,11.414899391999995],[79.793363063000015,11.414372581999999],[79.793662563999987,11.414029894000009],[79.793955476999997,11.414029984000024],[79.794542931000024,11.414491262000013],[79.795070210000006,11.414138174000016],[79.796060661000013,11.413166806999982],[79.796430777000012,11.412306822000005],[79.796991010999989,11.411657139999988],[79.798572847000003,11.410225954999987],[79.799151911000024,11.409901112999989],[79.799537955000005,11.40966572100001],[79.800187637000022,11.409364418999985],[79.800780825999993,11.408983083999999],[79.801063296999985,11.408808893000014],[79.80123748699998,11.408738276000008],[79.801501126000005,11.408559378000007],[79.801788305000002,11.408441680999999],[79.802009573000021,11.408338108999999],[79.802254381000012,11.408234536000009],[79.802668671999982,11.408060346000013],[79.803073546000007,11.407966188999978],[79.803299523000021,11.407895570999983],[79.803393679999999,11.407843785000011],[79.803467570999999,11.407817753000018],[79.803723229000013,11.407730796999999],[79.803873880000026,11.407646055999976],[79.804081025000016,11.407580145999987],[79.804414819999977,11.407527739999978],[79.804754247000005,11.407340046000002],[79.805112043000008,11.407245889000023],[79.805269430999999,11.407376069999998],[79.805389805999994,11.408130964000009],[79.805421996000007,11.408466292000014],[79.805512210000018,11.408766522999997],[79.805536459999985,11.408922942000004],[79.805568703999995,11.409105488000023],[79.805589859999998,11.409210174000009],[79.805620491000013,11.409392665999974],[79.805627936999997,11.40949720399999],[79.805658153000024,11.40966572100001],[79.805757631999995,11.410068439999975],[79.805865299000004,11.410291864999976],[79.805954747999976,11.410564920000013],[79.805978287000016,11.410701447000008],[79.806048905000011,11.410993333000022],[79.806058319999977,11.411219309999979],[79.806100690999983,11.411384085000009],[79.806161893000024,11.411487657000009],[79.806337440999982,11.412357292000024],[79.806646800999999,11.413361380000026],[79.806835115000013,11.413865118999979],[79.806999888999997,11.414477138999985],[79.807183495000004,11.414754902000027],[79.807268237000017,11.414985586],[79.807809639000027,11.416106053000021],[79.807941458000016,11.416346153000006],[79.807974413000011,11.416699241999993],[79.808007368000005,11.417033499000013],[79.808021492000023,11.41728301500001],[79.808054447000018,11.417466621000017],[79.808092301999977,11.417605144999982],[79.808209805999979,11.418186920999972],[79.808341625000025,11.418940175999978],[79.808619388000011,11.419269724999992],[79.808835949000013,11.419603982000012],[79.80901955500002,11.419900575999975],[79.809066632999986,11.420253665000018],[79.809099324999977,11.420629426000005],[79.809104295999987,11.421110493000015],[79.809118420000004,11.421360008000022],[79.809099587999981,11.421934366000016],[79.809028970999975,11.42314428200001],[79.80895835299998,11.423991693999994],[79.808920689999979,11.424462478000009],[79.808916236000016,11.425123014999997],[79.808900933000018,11.425598143999991],[79.808900965000021,11.425813638000022],[79.808831241000007,11.42623262799998],[79.808763586999987,11.426565068000002],[79.808656856000027,11.427028538000002],[79.808614680000005,11.427348387999984],[79.808458485000017,11.427781986000014],[79.80833691700002,11.428068687999996],[79.808275288000004,11.428246428000023],[79.808206700000028,11.428824361000011],[79.808190974000013,11.429528119999986],[79.808539354999994,11.430356700999994],[79.808760623000012,11.430822777000003],[79.808740689999979,11.431702592000022],[79.808760623000012,11.432192760000021],[79.808794152000019,11.432549315000017],[79.80875120799999,11.433299104000014],[79.808760623000012,11.433680439],[79.808963060999986,11.434104144999992],[79.809028970999975,11.434603176999985],[79.809005431000003,11.435121040000013],[79.808562893999976,11.436189721000005],[79.808252175999996,11.436980639000012],[79.807781391999981,11.438152892000005],[79.807475382000007,11.438990889000024],[79.807031629999983,11.439845945999991],[79.806806868000024,11.440657466000005],[79.806571474999998,11.441250653999987],[79.806434948000003,11.441599035000024],[79.806340791000025,11.441947415000016],[79.806199556000024,11.442267549000007],[79.805794681000009,11.443340937000016],[79.805554581000024,11.443872924000004],[79.805521625999972,11.444037698999978],[79.805432177,11.444306046000008],[79.804311709999979,11.445332355999994],[79.803374849000022,11.446212722999974],[79.802712552999992,11.446855355000025],[79.80146817100001,11.447931085999983],[79.800521893999985,11.448834992999991],[79.799665066999978,11.449696528000004],[79.798346869999989,11.450897028999975],[79.797791344000018,11.451461970000025],[79.79736293000002,11.451857428999972],[79.797099290999995,11.452186978999976],[79.797033833,11.452381807999984]]]},"properties":{"objectid":1252557,"site_id":555795363,"site_pid":"555795363","site_type":"PA","name_eng":"Pichavaram Mangrove","name":"Thillai Vanam","desig":"Wetland of International Importance (Ramsar Site)","desig_eng":"Wetland of International Importance (Ramsar Site)","desig_type":"International","iucn_cat":"V","int_crit":"(i);(ii);(iii);(iv);(v);(vi);(vii);(viii)","realm":"Coastal","rep_m_area":0,"gis_m_area":4.0687585799999999,"rep_area":14.78642,"gis_area":14.78642065,"no_take":"Not Reported","no_tk_area":0,"status":"Designated","status_yr":2022,"gov_type":"Not Reported","verif":"State Verified","inlnd_wtrs":"Not Reported","own_type":"Joint ownership","mang_auth":"Cuddalore District \nLocal Office : Forest Range Office, Pichavaram Range, Chidambaram \nControl Office : District forest Officer, Cuddalore Division, Cuddalore district","mang_plan":"Site management information available at: https://rsis.ramsar.org/ris/2482","cons_obj":"Not Applicable","supp_info":"More information available at: https://rsis.ramsar.org/ris/2482","metadataid":2123,"prnt_iso3":"IND","iso3":"IND","govsubtype":"Not Applicable","ownsubtype":"Not Reported","oecm_asmt":"Not Applicable","Shape__Area":0.0012249549795802341,"Shape__Length":0.22023313697568339}},{"type":"Feature","id":1252565,"geometry":{"type":"Polygon","coordinates":[[[72.927353605999997,19.095570742999996],[72.925963896999974,19.092311151999979],[72.924864415999991,19.089864272999989],[72.923958328000026,19.087516181000012],[72.921029092000026,19.083848181000008],[72.921467810000024,19.083005802999992],[72.926343830999997,19.079275845999973],[72.928508141000009,19.078906881000023],[72.928991864000011,19.079022710000004],[72.930146877000027,19.079983103000018],[72.93112729500001,19.079037923999977],[72.934023293999985,19.08182810400001],[72.936045400000012,19.08020750899999],[72.93093109900002,19.075060533999988],[72.929832239000007,19.07604749799998],[72.928948000999981,19.076380735999976],[72.928188639999973,19.07706760100001],[72.928944903000001,19.077687152999999],[72.928915017999998,19.078781236999987],[72.928022606000013,19.078804749000028],[72.926251044000026,19.079125222000016],[72.924097433999975,19.080784818999973],[72.923483195000017,19.080092523000019],[72.923113428000022,19.080398491999972],[72.922631287999991,19.080021176000002],[72.922181523000006,19.080244090000008],[72.921660379999992,19.080742294000004],[72.921715655000014,19.081031949000021],[72.922525699000005,19.082011110999986],[72.921340179000026,19.082937479000009],[72.921033164999983,19.083543200999998],[72.920727655000007,19.083479780999994],[72.918825996999999,19.081191719999993],[72.917504866000002,19.079585016999999],[72.917817183000011,19.079029295999987],[72.917787245,19.078527168999983],[72.917938954000022,19.078052655000022],[72.91799411300002,19.077677456999993],[72.918611042999999,19.076764244000003],[72.91895832900002,19.076439381],[72.920085938,19.075833188999979],[72.920856216000004,19.07535132999999],[72.921311343000013,19.075174909999987],[72.92206115099998,19.074933047000002],[72.920828814000004,19.073628353000004],[72.92184914500001,19.073018966999996],[72.922659335999981,19.074046997999972],[72.923032644999978,19.074349229999996],[72.923536913000021,19.074302219000003],[72.924197462999985,19.073981903000004],[72.924911866999992,19.074036141000022],[72.925789220000013,19.074551079999992],[72.926916361999986,19.074993991999975],[72.92782374799998,19.075087941999982],[72.929693368000017,19.074586898000007],[72.930767679999974,19.07373745000001],[72.931649692999997,19.072819626000012],[72.931769336000002,19.072545767000008],[72.931840432999991,19.072077287000013],[72.932237767999993,19.070789435999984],[72.932812006000006,19.070469393999986],[72.933726191000005,19.069833836999976],[72.933936539000001,19.069564031000027],[72.934077227999978,19.069089383999994],[72.934054232999983,19.06863983400001],[72.934096236000016,19.068194660000017],[72.934300210999993,19.067270866999991],[72.934834426999998,19.066561227000022],[72.935506846999999,19.064904897000019],[72.93571595100002,19.06350086499998],[72.935793418999992,19.063323027000024],[72.936088970000014,19.063077254000007],[72.936394674999974,19.062610463999988],[72.936955920999992,19.061500394000007],[72.937201118000019,19.060550028000023],[72.937201484000013,19.059948505000023],[72.937084922999986,19.059280903999991],[72.935709890999988,19.059280237999985],[72.934953677999999,19.059362793999981],[72.934315663999996,19.059523793999972],[72.933754559000022,19.059886846999973],[72.933721343000002,19.059909220999998],[72.933068069000001,19.059886869000024],[72.932795187000011,19.060347794999984],[72.931182128999978,19.059383673000013],[72.931191646999991,19.059164991999978],[72.93120782699998,19.059164991999978],[72.931367903000023,19.058855845999972],[72.930893697999977,19.05857868999999],[72.931166868999981,19.058154589000026],[72.929902824999999,19.057465089999994],[72.930077403999974,19.057142457999987],[72.929400960000009,19.056836465999993],[72.930227935999994,19.056698471999994],[72.930933713999991,19.057326869000008],[72.931922569999983,19.058137240000008],[72.932612575999997,19.058640627999978],[72.932858119999992,19.058779060000006],[72.933241028999987,19.058265388999985],[72.933058604999985,19.057543333000012],[72.932603495000023,19.05705971399999],[72.932501725000009,19.056684973000017],[72.932550311999989,19.056278308000003],[72.932915548999972,19.055998914999975],[72.932894427000008,19.056453972999975],[72.932850550000012,19.056822683000007],[72.933234546999984,19.057321897000008],[72.933559532999993,19.057681249999973],[72.933919243999981,19.058171972000025],[72.934196125000028,19.058444302999987],[72.934863873999973,19.058690666000018],[72.935542492000025,19.058669771999973],[72.935595279999973,19.058437002000005],[72.935772344999975,19.05826577800002],[72.935898157999986,19.058119454000007],[72.936278281,19.057857671000022],[72.936186052999972,19.057493835999992],[72.936333350999973,19.057464091999975],[72.937448486999983,19.058178837000014],[72.937789764999991,19.058478470000011],[72.937833687000023,19.058768325000017],[72.938671192000015,19.05897029800002],[72.938948314000015,19.058951490000027],[72.939341124999999,19.058761343000015],[72.939612430000011,19.057933448000028],[72.939585378999993,19.057526597999981],[72.939840635999985,19.057461180000018],[72.939830632999985,19.058581914999991],[72.941891165000015,19.057480872999975],[72.94219469799998,19.056296357999997],[72.941462178999984,19.05570888699998],[72.941078111000024,19.055719699000008],[72.940485536999972,19.055291753999995],[72.940358901000025,19.055009115000018],[72.940083505000018,19.054828444000009],[72.940109455000027,19.054750566999985],[72.940314919999992,19.05469799399998],[72.940508976999979,19.054665929999999],[72.940741778000017,19.054656869999974],[72.94089492400002,19.054456847999973],[72.94111475699998,19.054422553999984],[72.941159400999993,19.054067176999979],[72.940978941000026,19.053963850999992],[72.940841959000011,19.05368648000001],[72.940920109999979,19.053523100999996],[72.940747975000022,19.053456854999979],[72.936568019999982,19.051841416999991],[72.936891548000006,19.05142734399999],[72.943643628000018,19.053796413999976],[72.944263067999998,19.054032279000012],[72.946448870999973,19.054824857000028],[72.95493553099999,19.05784195199999],[72.95727156800001,19.05873842699998],[72.958036564999986,19.058835240000008],[72.958411301000012,19.058893418000025],[72.960285625999973,19.059320748999994],[72.96290886700001,19.05990687000002],[72.971314837000023,19.061901824000017],[72.97802925000002,19.063481446000026],[72.977982843000007,19.063793024000006],[72.980813533000003,19.064841820000026],[72.981818310999984,19.06532329800001],[72.982465832000003,19.065950427000018],[72.982161538000014,19.066297381000027],[72.983032620000017,19.067099729000006],[72.982973189999996,19.067180801999996],[72.984403332999989,19.068427529000019],[72.98491147499999,19.068277899999998],[72.985197744000004,19.06859246099998],[72.985087981999982,19.068700601999979],[72.984985279999989,19.068931490000011],[72.984675173000028,19.069089367999993],[72.984370109999986,19.069274698000015],[72.984125505999998,19.06962504400002],[72.984263906000024,19.069748898],[72.984157729000003,19.070040431999985],[72.983974853999996,19.070279077000009],[72.98390671300001,19.070576840999991],[72.984146678000002,19.070817142999999],[72.98415890299998,19.071105973999977],[72.984088159999999,19.07117311899998],[72.984132998999996,19.071381432999999],[72.984256875000028,19.071814234999977],[72.984644202000027,19.075566067000011],[72.985056754000027,19.075870253000005],[72.986373792999984,19.076282021999987],[72.987181952000014,19.076218567000012],[72.988946073000022,19.076005828000007],[72.989942164000013,19.077159703000007],[72.995333311000024,19.083402361000026],[72.995498517999977,19.083504004000019],[72.996727267999972,19.084791278000012],[72.996806392999986,19.084861736999983],[72.997050965000028,19.085500724999974],[72.997176974000013,19.085763842999995],[72.997566957999993,19.085480249999989],[72.997702507999975,19.085446957999977],[72.997845740000002,19.085516820999999],[72.998247237999976,19.086011222000025],[72.99857855800002,19.086475912000026],[72.99882588700001,19.086821117999989],[72.999017669000011,19.087073610000004],[72.999145209999995,19.087245855999981],[72.99920739800001,19.087333311000009],[72.999982595999995,19.088384575000021],[73.000168518000009,19.088704539999981],[73.000336754999978,19.08912325],[73.000700671999994,19.089430629999981],[73.001522792000003,19.090099805000023],[73.002883752999992,19.091339381000012],[73.003089939999995,19.091521595000017],[73.003384738000022,19.091917716000012],[73.004137371000013,19.09248252399999],[73.004336275000014,19.092531425000004],[73.005393489000028,19.092359734000013],[73.005636861000028,19.095973023999989],[73.005403232999981,19.097340379999991],[73.004578046999995,19.096990660000017],[73.000304874999983,19.093524659000025],[72.999548564999998,19.093580594999992],[72.994880233000003,19.093768674999978],[72.994252073999974,19.094127551999975],[72.993478588000016,19.094644491999986],[72.992747859000019,19.095179826999981],[72.992730852000022,19.095214295000005],[72.992309797000019,19.095661678999988],[72.99242377500002,19.096450466000022],[72.992765904000009,19.096916252000028],[72.993262786000003,19.097177993999992],[72.994072619000008,19.097196591999989],[72.99564574499999,19.096389412000008],[72.996265370000003,19.096235057999991],[72.996337297000025,19.096868278999978],[72.996354960000019,19.097231727000008],[72.996345313000006,19.097635883000009],[72.996213513999976,19.097653627],[72.995030513000017,19.097904292999999],[72.995417911999994,19.099206901999992],[72.995733528000017,19.100406435000025],[72.99654645999999,19.103702702000021],[72.996559649999995,19.103752892999978],[72.996805283000015,19.104712274000008],[72.996873366999978,19.106600732999993],[72.996995298000002,19.106853956000009],[72.997475623000014,19.108131612000022],[72.997903354000016,19.109568989000024],[73.001279323999995,19.110529341000017],[73.000749922000011,19.112451306000025],[72.998116331999995,19.113648034999983],[72.997738512000012,19.113848700000005],[72.995319826000014,19.115061185000002],[72.994070485000009,19.115696196999977],[72.992834010000024,19.116852272000017],[72.991633493999984,19.116540308000026],[72.991563274999976,19.115973649000011],[72.991176339999981,19.115320208000014],[72.990676969999981,19.114735488000008],[72.990605102000018,19.114684022999995],[72.990268173999993,19.114559362000023],[72.989976365000018,19.114514427000017],[72.989790388000017,19.114520031999973],[72.989327718000027,19.114627158000019],[72.989004740999974,19.114701297000011],[72.988770622999994,19.114780273999997],[72.988554813999997,19.115021001999992],[72.988434908999977,19.115299639999989],[72.988418808000006,19.11559926000001],[72.989010027000006,19.117126633999987],[72.988936443999989,19.118768698999986],[72.98870595599999,19.119120667000004],[72.988545323999972,19.119325968999988],[72.988247774000001,19.11963238300001],[72.987705011999992,19.119371807999983],[72.987296845000003,19.119161829999996],[72.986939973000005,19.119063519000008],[72.98671357500001,19.119192236000004],[72.98665155499998,19.11941436799998],[72.986670240000024,19.119630057999984],[72.98695571899998,19.120010948000015],[72.987237863000018,19.120493092999993],[72.987189735000015,19.120626214000026],[72.987113694000016,19.120941619999996],[72.986956338000027,19.121460785000011],[72.986778759999993,19.122115307999991],[72.986806109999975,19.122262859999978],[72.986896015000013,19.122613414],[72.986941946999991,19.122792016000005],[72.986986304000027,19.122999327999992],[72.987471443000004,19.123923035000018],[72.987611187000027,19.124259929999994],[72.987687494999989,19.124448669999992],[72.987746157999993,19.12466763499998],[72.988062770999989,19.125546934999988],[72.988264398000013,19.126161605999982],[72.988464930000021,19.126605046999998],[72.988608630999977,19.126865526000017],[72.988621278999972,19.126973306000025],[72.988689076000014,19.127050225000005],[72.98880139900001,19.127588321000019],[72.989275776999989,19.127830241000026],[72.990012569999976,19.128028959999995],[72.991648349000002,19.128475020999986],[72.992057176000003,19.128353994999998],[72.992635953999979,19.127959361000023],[72.992998396000019,19.12788671200002],[72.99349304399999,19.127848304999986],[72.994052951000015,19.128243915999974],[72.994087094999998,19.128383268999983],[72.993601719000026,19.130056925000019],[72.993484009999975,19.130139093000025],[72.993474866999975,19.130499632999999],[72.993183116000012,19.130525716000022],[72.993012669999985,19.131289854999977],[72.992714668000019,19.131531574000007],[72.992410622000023,19.131857863999983],[72.99237955000001,19.132068754999978],[72.992494960999977,19.132549073999996],[72.992712953000023,19.133011024999973],[72.993138982999994,19.133163862999993],[72.993283782999981,19.133212515000025],[72.993659116999993,19.133183963000022],[72.993728788999988,19.133533751000016],[72.993834841000023,19.134348457999977],[72.994200601999978,19.134378040999991],[72.994570351999982,19.134571345999973],[72.995607486999972,19.134341248999988],[72.995976242999973,19.134451114000001],[72.996241864000012,19.135139003999996],[72.996244193999985,19.135544045000017],[72.996301564000021,19.13577843500002],[72.996173957999986,19.136058391000006],[72.996065489999978,19.136452194000015],[72.995951616000013,19.136996759999988],[72.995953180000015,19.138219952999975],[72.995867721000025,19.141924828000015],[72.992667077000021,19.141667868000013],[72.992184442999985,19.141450764000012],[72.99074777200002,19.141731240000013],[72.990050176000011,19.142073230999983],[72.989727372000004,19.14222657800002],[72.98932772400002,19.142404137000028],[72.989086980000025,19.142556113000012],[72.988667600999975,19.142744618999984],[72.988068637000026,19.142503708999982],[72.98698983700001,19.139333928999974],[72.986726541999985,19.138128377999976],[72.986673800000005,19.137827722999987],[72.986569162000023,19.137437422000005],[72.98634056100002,19.137099358],[72.985967259999995,19.136343738999983],[72.985680472000013,19.136075204000008],[72.985109635000015,19.136021242000027],[72.984717031000002,19.136302437999973],[72.984235144000024,19.137194529999988],[72.983954596999979,19.137219018999986],[72.983768161,19.137680400000022],[72.983797240999991,19.138083418000008],[72.983838814000023,19.139125963000026],[72.983745850999981,19.139739813000006],[72.983653979999985,19.140324415000009],[72.984348825999973,19.142287033999992],[72.984647633999998,19.144097134999981],[72.984741367000026,19.144676810000021],[72.985592210999982,19.145911529999978],[72.987021235999975,19.148053650000008],[72.986992059999977,19.148283730000003],[72.986988553999993,19.148616372999982],[72.987021143999982,19.149090294000018],[72.986857987000008,19.148977677000005],[72.986680835000016,19.148644482999998],[72.986455494999973,19.148135718999981],[72.985917728000004,19.148044905000006],[72.985522666999998,19.147914026000024],[72.985489980000011,19.147768541999994],[72.985307363000004,19.147682438000004],[72.985197959000004,19.147604736000005],[72.985047313999985,19.147732683000015],[72.984970854999972,19.147842202999982],[72.985326907000001,19.149695231999999],[72.984262751000017,19.149903559999984],[72.98425075099999,19.149971447999974],[72.984298610999986,19.150218712000026],[72.984317910000016,19.150480019999975],[72.986177366999982,19.150163830999986],[72.986364664000007,19.150643777000028],[72.986636438999994,19.150748405000002],[72.986013207999974,19.151809786000001],[72.985712777999993,19.152277787000003],[72.985479266000027,19.15257064299999],[72.985258233000025,19.152969614000028],[72.985145644999989,19.153168419999986],[72.984923685000012,19.153665247999982],[72.985167267999998,19.153811460999975],[72.987316559000021,19.155032687000016],[72.989451717999998,19.151723715000003],[72.989575129000002,19.151657313999976],[72.991085127000019,19.151668164],[72.991852697000013,19.151637343000004],[72.992792730000019,19.151583856999991],[72.992825888000027,19.151929879000022],[72.992930414,19.153842810000015],[72.990850857999988,19.153971421999984],[72.989805052999998,19.154266494000012],[72.989719207000007,19.155390097000009],[72.990326026999981,19.155683388999989],[72.993095794999988,19.155468699999972],[72.993172271999981,19.156401621999976],[72.99309357300001,19.156730478999975],[72.99286080600001,19.156656766000026],[72.992477210000004,19.156610160000014],[72.992259693999983,19.156579824999994],[72.992194164000011,19.156526435999979],[72.992020032000028,19.156519332000016],[72.991907216000016,19.156536953999989],[72.991847643000028,19.156540478000011],[72.99167440299999,19.156630241000016],[72.99170878000001,19.157242295999993],[72.992210532999991,19.157733147999977],[72.992249201999982,19.157777876000011],[72.990572335000024,19.159070258999975],[72.989722368000002,19.159855035000021],[72.989209049999999,19.160508212000025],[72.988930660999984,19.161407267000016],[72.989006055999994,19.163261793999993],[72.989114394000012,19.165838271999974],[72.98921819200001,19.166140266000014],[72.990281848999985,19.167217327999992],[72.990784458999997,19.16762761199999],[72.991059294000024,19.167992077999997],[72.99104528700002,19.169393991999982],[72.991009640000016,19.170888987000012],[72.989702077000004,19.170834141],[72.989199844999973,19.170738394000011],[72.986529711000003,19.170198835999997],[72.986315891999993,19.170232503000022],[72.985917656000026,19.170224473000019],[72.985375651000027,19.170191993999993],[72.985118953999972,19.170251614999984],[72.985042878999991,19.170308042999977],[72.984893926999973,19.170525504000011],[72.984782156999984,19.171128328000009],[72.984529104999979,19.171550384],[72.984440950000021,19.172045105999985],[72.984794943999987,19.173183429000005],[72.985147488999985,19.173582452999995],[72.985376385999984,19.173956615999998],[72.985440696000012,19.174095522000016],[72.985625416000005,19.174101682000014],[72.986272328999974,19.174125172999993],[72.986501966999981,19.174182368000004],[72.986541045000024,19.174506783000027],[72.986090617999992,19.174525829999993],[72.985844757999985,19.174631680999994],[72.98557548399998,19.174569958000006],[72.985537146000013,19.174677434999978],[72.985455688999991,19.174843775999989],[72.985562781999988,19.17489956899999],[72.985468497999989,19.175041845999999],[72.985524096999995,19.175196359999973],[72.985537823000016,19.175328308000019],[72.985582840999996,19.17542156899998],[72.985435370999994,19.175605190999988],[72.98546540000001,19.175788436000005],[72.985853598999995,19.176628090999998],[72.985971393,19.176705979000019],[72.986090782000019,19.176670595000019],[72.986160718999997,19.176695855999981],[72.986197877999984,19.176778038999998],[72.986471460000018,19.176982103],[72.986607143000015,19.177288562000001],[72.98674201099999,19.177510305999988],[72.987066172000027,19.177993375000028],[72.987245373999997,19.178529224999977],[72.987240480000025,19.178779244999987],[72.987624443000016,19.17900960999998],[72.987837769999999,19.179120609999984],[72.987818871999991,19.179306581999981],[72.987335522000024,19.17907468300001],[72.987201143999982,19.179127112000003],[72.987354825000011,19.179206399999998],[72.987443724000002,19.179239656999982],[72.987404470000001,19.179333429999986],[72.987171591999982,19.179340140000022],[72.987100914999985,19.179975947000003],[72.987101388999974,19.180459397999982],[72.987277104999976,19.180897274000017],[72.987485311,19.180999512000028],[72.987672895000003,19.181116786000018],[72.987678205999998,19.181121760999986],[72.987695700000017,19.181187109999996],[72.987698297999998,19.181305856999984],[72.987620128999993,19.181500195000012],[72.987641457999985,19.181581569999992],[72.987741422999989,19.181638787999987],[72.987776177000001,19.181653234999999],[72.987804638,19.181755955000028],[72.987810555999999,19.181761912000013],[72.987938256999996,19.182180695999989],[72.987961703999986,19.182264434999979],[72.988062914000011,19.182219072000009],[72.988114622000012,19.182307864999984],[72.988138278999998,19.182558190999998],[72.988063807999993,19.182572005999987],[72.988065043999995,19.182653254000002],[72.988078245999986,19.18270174700001],[72.988226499000007,19.182750913000007],[72.98849416500002,19.182833359000028],[72.98855628299998,19.182812594999973],[72.988574222000011,19.182890351000026],[72.988596556999994,19.18307934500001],[72.988518505000002,19.183124059000022],[72.98841825300002,19.183117618999972],[72.988376647999985,19.183136908999984],[72.988304363999987,19.18338651900001],[72.988356887000009,19.183445369000026],[72.988375195000003,19.183424506999984],[72.988415997999994,19.18346285299998],[72.988377946000014,19.183533219000026],[72.988374851000003,19.183713563000026],[72.988445379999973,19.183735827000021],[72.988388749000023,19.183876293000026],[72.988347329000021,19.184017848999986],[72.988236706000009,19.184041322999974],[72.988228853999999,19.184050157000001],[72.988185950000002,19.184157362000008],[72.988077174000011,19.184353527999974],[72.987959650999983,19.184322682000015],[72.987870235000003,19.184498734999977],[72.987655829000005,19.184536372000025],[72.987815112000021,19.185289129000012],[72.987260183999979,19.185329008999986],[72.987216052000008,19.18539937700001],[72.987406196999984,19.185526138],[72.987434301000008,19.185751407999987],[72.987211705999982,19.185703305000004],[72.987152861000027,19.185564101000011],[72.986820334000015,19.186261342000023],[72.986445251000021,19.188104053000018],[72.985998262999999,19.188833154999998],[72.984664344000009,19.18846402600002],[72.981235572999992,19.187530458000026],[72.981003671999986,19.187472843000023],[72.981025149999994,19.187212896999995],[72.980901275000008,19.187073854000005],[72.980964457000027,19.186178008000013],[72.980930222999973,19.185963389999984],[72.981065519000026,19.185726875],[72.981135552000012,19.185046913999997],[72.980997079000019,19.184984892999978],[72.980907526999999,19.184633691999977],[72.980969357999982,19.184241408999981],[72.98119078000002,19.184283870999991],[72.981240351999986,19.184143716999984],[72.98111706100002,19.184100503000025],[72.981524471,19.183613691000005],[72.981930496000018,19.183228278999991],[72.982514055000024,19.182693109000013],[72.982578923000005,19.182637381999996],[72.982739045000017,19.182236891999992],[72.982644821000008,19.18202463199998],[72.982385011000019,19.181652106999991],[72.982221621999997,19.181350212999973],[72.98183960099999,19.181500253000024],[72.981764455000018,19.181410799999981],[72.98157938899999,19.181474089000005],[72.981316552999999,19.181552526000019],[72.981224777000023,19.181132418999994],[72.980436383999972,19.18128860500002],[72.980361876000018,19.181046400000014],[72.981155016999992,19.18083397700002],[72.981023497000024,19.180338010000014],[72.981119635000027,19.180032295999979],[72.980974716999981,19.179385007000008],[72.980916562000004,19.179158013999995],[72.979241474999981,19.179437149000023],[72.979392505000021,19.180432676000009],[72.976540837000016,19.181013439000026],[72.975564596000027,19.180223751000028],[72.974931668000011,19.178928396999993],[72.974479544000019,19.177701866000007],[72.973878472000024,19.176494419999983],[72.976088971000024,19.173600412999974],[72.975407126999983,19.17321543700001],[72.97590319699998,19.172638139000014],[72.975794565000001,19.172143886000015],[72.976066926999977,19.17169521400001],[72.976156704999994,19.171366630000023],[72.976039850000006,19.171048047999989],[72.975837343000023,19.170702026000015],[72.976089208000019,19.170111576000011],[72.975886323999987,19.170043356000008],[72.975619628999993,19.169952130000013],[72.975452731000019,19.169565707999993],[72.975280253999983,19.169383132999997],[72.975072623000017,19.169249791000027],[72.97493629600001,19.169165267999972],[72.974909481999987,19.168970521000006],[72.974697030000016,19.16867509399998],[72.974429487000009,19.168432578000022],[72.974086953999972,19.168397314999993],[72.973997666000002,19.168590882999979],[72.973896673000013,19.16877221499999],[72.973720759999992,19.16896699199998],[72.973425168999995,19.169180290999975],[72.973150314000009,19.169285721999984],[72.973049828000001,19.169208592000018],[72.972260140000003,19.169695385000011],[72.972102511999992,19.169787628999984],[72.971948885000018,19.169980635999991],[72.971811109999976,19.170081638999989],[72.971691807000013,19.170160758000009],[72.97161666300002,19.170398929999976],[72.971780423999974,19.170565724000028],[72.97175814000002,19.170716391999974],[72.971705980000024,19.170922501000007],[72.971466940000028,19.171006745999989],[72.971387752999988,19.170731697999997],[72.971327963000022,19.170345863000023],[72.970853459000011,19.170413692000011],[72.970461818999979,19.170447912999975],[72.969760751000024,19.170860629000003],[72.968994177000013,19.171277022000027],[72.968706213000019,19.171012840000003],[72.968477403999998,19.170546881000007],[72.968475232000003,19.170218121999994],[72.968289378000009,19.170147767000003],[72.967960671000014,19.170395196000015],[72.967780892000007,19.170135877000007],[72.968013658000018,19.169859771000006],[72.968106987999988,19.16969844800002],[72.968251236000015,19.169703738999999],[72.968418480000025,19.169731593999984],[72.968565389999981,19.169847845999982],[72.968661386000008,19.169951635000018],[72.968728064000004,19.170086126000001],[72.96877804899998,19.170441740000001],[72.968893051000009,19.170724527999994],[72.969115396000007,19.170865660000004],[72.969528352999987,19.170669870999973],[72.969883055000025,19.170294628000022],[72.970256140999993,19.170161172999997],[72.970840743999986,19.170105078000006],[72.971328066000012,19.170038125000019],[72.971814123000001,19.169539987000007],[72.972198871999979,19.169073172000026],[72.972876032999977,19.168810269000005],[72.973152491999997,19.168679313999974],[72.973148728000012,19.16842594100001],[72.973068736000016,19.168307847999984],[72.972650944000009,19.168139191000023],[72.971564736000005,19.167731281999977],[72.971367505999979,19.167492161999974],[72.971009698999978,19.167052203000026],[72.970783021999978,19.166987813999981],[72.970586474000015,19.167028402000028],[72.970519879999983,19.167346072999976],[72.970651205000024,19.167709306000006],[72.969936007000001,19.167820219000021],[72.969088729000021,19.166978409000023],[72.967248213999994,19.165313330999993],[72.965451363999989,19.163967956000022],[72.965456336999978,19.163836028999981],[72.965167667000003,19.163806743999999],[72.96479270399999,19.163894298000002],[72.964553556999988,19.164016898999989],[72.964250551000021,19.163461709999979],[72.963863305000018,19.163265710000019],[72.96335498000002,19.162868659000026],[72.962794792000011,19.162722905999999],[72.962956609999992,19.162531166999997],[72.962709200000006,19.162129977000006],[72.962428304000014,19.162262263000002],[72.962049701000012,19.161731347999989],[72.961044639000022,19.160307493000005],[72.959877892000009,19.15858584099999],[72.959058195000011,19.157379311999989],[72.958187208000027,19.156090924000011],[72.957382135999978,19.154901036000012],[72.956664514000011,19.153797385000018],[72.955702699000028,19.152387723000004],[72.955274503999988,19.151737834000016],[72.955387097000028,19.15153882200002],[72.955876115000024,19.151137170000027],[72.957127242000013,19.150877569999977],[72.958882202999973,19.150623169000028],[72.960285637000027,19.149849177000021],[72.961876496000002,19.148869198999989],[72.962097126000003,19.148882161000017],[72.962709530999973,19.148630938999986],[72.962868381000021,19.14856550899998],[72.962866167000016,19.147455637999997],[72.96282593799998,19.14610339699999],[72.964409276000026,19.146349741999984],[72.964583788000027,19.145390571000007],[72.963351282000019,19.145187834000012],[72.96307901199998,19.145148371000005],[72.963074762000019,19.144961802000012],[72.963019668000015,19.144904541000017],[72.963075133000018,19.144878290000008],[72.963306966000005,19.144858242999987],[72.96343738500002,19.144746225999995],[72.963543043000016,19.144468850999999],[72.964200686000027,19.142584183999986],[72.958019126000011,19.140217197000027],[72.957964253,19.140350924000018],[72.95753212599999,19.141338906999977],[72.957128051999973,19.142305731000022],[72.958333902999982,19.142829871000004],[72.960534234000022,19.143675218999988],[72.960496765000016,19.144230623999988],[72.960504135999997,19.145061226999985],[72.961767932999976,19.145353446999991],[72.962705165999978,19.14631663199998],[72.962743445000001,19.148470104000012],[72.962109193999993,19.148749543000008],[72.961927017999983,19.148749613000007],[72.958943956999974,19.150465026000006],[72.957082791000005,19.150820738999982],[72.955694741999991,19.151122187999988],[72.955105289000016,19.151428064000015],[72.951872460999994,19.146290658999987],[72.948298958000009,19.140458281000008],[72.946604768999975,19.137676435000003],[72.943282980999982,19.132432116000018],[72.94322534600002,19.129748925999991],[72.943332694999981,19.128072993999979],[72.944400286000018,19.128196209000009],[72.949996871999986,19.127808811000023],[72.951542927999981,19.127533271000004],[72.953903808999996,19.127011779999975],[72.955828332999999,19.126838716000009],[72.956160268000019,19.125728588000015],[72.957269094000026,19.124916293000013],[72.957101813000008,19.123612665999985],[72.956360656000015,19.123148662999995],[72.955982979999987,19.122485181999991],[72.955689041000028,19.121948512000017],[72.955578652999975,19.12045292800002],[72.952036594999981,19.120380545999978],[72.951568453999982,19.120514066999988],[72.943871973,19.120179902000018],[72.94351734899999,19.120251499999995],[72.943422892000001,19.120311388000005],[72.942742398000007,19.12248368500002],[72.941853498,19.125747819000026],[72.941134377000026,19.126496318000022],[72.940783570999997,19.127070202000027],[72.940576281000006,19.127534294999975],[72.940447210999992,19.127524543999982],[72.938073128999974,19.122121837000009],[72.938387019999993,19.122231178999982],[72.938552739999977,19.122503144999996],[72.939002231000018,19.122765630999993],[72.940679328999977,19.123513048000007],[72.941648894000025,19.123154172],[72.941879828000026,19.122484973999974],[72.942081100999985,19.122281918999988],[72.942097444000012,19.121462762000021],[72.941974533999996,19.121311696000021],[72.941952137999976,19.120745528999976],[72.942125798000006,19.120674726000004],[72.942259911999997,19.119434419000015],[72.942086403000019,19.119309938000015],[72.942147697999985,19.118917274000012],[72.942248020000022,19.118862702000001],[72.942274472999998,19.118755012000008],[72.942367568000009,19.118707127999983],[72.942641880999986,19.117622494999978],[72.942842746999986,19.117316429000027],[72.942804603000013,19.117133582000008],[72.942905646999975,19.116801527000007],[72.943103248,19.116723836999995],[72.943016796999984,19.11631842700001],[72.941988084000002,19.116377664000026],[72.941899271000011,19.116060942999979],[72.941702926999994,19.116061006999985],[72.941659995000009,19.115526511999974],[72.941532110000026,19.115330246999974],[72.941496405000009,19.115043866000008],[72.941657695999993,19.114924427999995],[72.941536179000025,19.114598865000005],[72.940911497000002,19.114282349000007],[72.940497202000017,19.113990419999993],[72.939962578000006,19.113911503999987],[72.939569559999995,19.113867157000016],[72.938961338000013,19.113729651000028],[72.938537800999995,19.113661035000007],[72.937952919999987,19.113577847999977],[72.937552351000022,19.113499745000013],[72.937551263999978,19.113397596000027],[72.937961556999994,19.11334057900001],[72.939621451999983,19.113500269999975],[72.939821811000002,19.113471096000012],[72.940617975999999,19.113722549999977],[72.94077256700001,19.113677246999998],[72.940784456000017,19.113369266000007],[72.940995364000003,19.113092349999988],[72.941155991000016,19.112687876999985],[72.940889289999973,19.111423173999981],[72.938766520999991,19.106904573000008],[72.936747724999975,19.107557634999978],[72.934767400999988,19.108138304000022],[72.934152610000012,19.106897425999989],[72.933917330999975,19.105041011000026],[72.934183098000005,19.104249539000023],[72.93392809300002,19.103551020999987],[72.933660352999993,19.102430726000023],[72.933412250999993,19.102128092999976],[72.932905050999977,19.102063473999976],[72.932352418999983,19.102194336000025],[72.931641311000021,19.102264140999978],[72.931240375000016,19.102070523000009],[72.930697339999995,19.102208254999994],[72.930068429000016,19.102375277000021],[72.929135329000019,19.099990327],[72.927353605999997,19.095570742999996]]]},"properties":{"objectid":1252565,"site_id":555795371,"site_pid":"555795371","site_type":"PA","name_eng":"Thane Creek","name":"Thane Creek","desig":"Wetland of International Importance (Ramsar Site)","desig_eng":"Wetland of International Importance (Ramsar Site)","desig_type":"International","iucn_cat":"Not Reported","int_crit":"(i);(ii);(iii);(iv);(v);(vi);(vii);(viii)","realm":"Coastal","rep_m_area":0,"gis_m_area":19.118805210000001,"rep_area":65.210800000000006,"gis_area":65.690087719999994,"no_take":"Not Reported","no_tk_area":0,"status":"Designated","status_yr":2022,"gov_type":"Not Reported","verif":"State Verified","inlnd_wtrs":"Not Reported","own_type":"Joint ownership","mang_auth":"Mangrove Cell of Forest Department of Maharashtra","mang_plan":"Site management information available at: https://rsis.ramsar.org/ris/2490","cons_obj":"Not Applicable","supp_info":"More information available at: https://rsis.ramsar.org/ris/2490","metadataid":2123,"prnt_iso3":"IND","iso3":"IND","govsubtype":"Not Applicable","ownsubtype":"Not Reported","oecm_asmt":"Not Applicable","Shape__Area":0.0056398255303036016,"Shape__Length":0.70118706983999901}}]}